{
  "norad_id": 53638,
  "name": "STARLINK-4594",
  "history": [
    {
      "epoch": "2026-04-13T06:54:27.687744Z",
      "apogee_km": 540.6691823993451,
      "perigee_km": 538.8150524382936,
      "latitude_deg": 2.975632201794769e-05,
      "longitude_deg": 123.33789863254714,
      "height_km": 540.6125362995862,
      "semi_major_axis_km": 6917.879117418819,
      "eccentricity": 0.00013401,
      "inclination_deg": 53.2173,
      "raan_deg": 68.434,
      "arg_perigee_deg": 88.4361,
      "mean_anomaly_deg": 271.6785,
      "mean_motion_rev_day": 15.08840416
    },
    {
      "epoch": "2026-04-14T14:42:10.325664Z",
      "apogee_km": 540.7032106270872,
      "perigee_km": 538.7703566919326,
      "latitude_deg": -1.5160600682940531e-05,
      "longitude_deg": -0.8428729488558513,
      "height_km": 540.61444259276,
      "semi_major_axis_km": 6917.873783659509,
      "eccentricity": 0.0001397,
      "inclination_deg": 53.2177,
      "raan_deg": 62.4867,
      "arg_perigee_deg": 88.9309,
      "mean_anomaly_deg": 271.1843,
      "mean_motion_rev_day": 15.08842161
    },
    {
      "epoch": "2026-04-15T06:36:01.764288Z",
      "apogee_km": 540.7500227318051,
      "perigee_km": 538.7327693915131,
      "latitude_deg": -1.440853115251097e-05,
      "longitude_deg": 117.06630901599839,
      "height_km": 540.6601443854485,
      "semi_major_axis_km": 6917.878396061658,
      "eccentricity": 0.0001458,
      "inclination_deg": 53.2182,
      "raan_deg": 59.5131,
      "arg_perigee_deg": 91.3118,
      "mean_anomaly_deg": 268.8041,
      "mean_motion_rev_day": 15.08840652
    },
    {
      "epoch": "2026-04-16T20:45:17.292672Z",
      "apogee_km": 540.7414889856782,
      "perigee_km": 538.7643560458246,
      "latitude_deg": -5.676961207284406e-05,
      "longitude_deg": -103.95126296825708,
      "height_km": 540.6041038457005,
      "semi_major_axis_km": 6917.889922515751,
      "eccentricity": 0.0001429,
      "inclination_deg": 53.2174,
      "raan_deg": 52.3772,
      "arg_perigee_deg": 87.4235,
      "mean_anomaly_deg": 272.692,
      "mean_motion_rev_day": 15.08836881
    },
    {
      "epoch": "2026-04-17T20:36:04.562496Z",
      "apogee_km": 540.7582607758859,
      "perigee_km": 538.7524870609914,
      "latitude_deg": -4.5095344028430145e-06,
      "longitude_deg": -107.08771993319058,
      "height_km": 540.6028926084102,
      "semi_major_axis_km": 6917.892373918438,
      "eccentricity": 0.00014497,
      "inclination_deg": 53.2179,
      "raan_deg": 47.917,
      "arg_perigee_deg": 87.2499,
      "mean_anomaly_deg": 272.8659,
      "mean_motion_rev_day": 15.08836079
    },
    {
      "epoch": "2026-04-18T06:08:23.309376Z",
      "apogee_km": 540.7753124178344,
      "perigee_km": 538.7231906401803,
      "latitude_deg": 2.5103723602820146e-05,
      "longitude_deg": 107.65805629525936,
      "height_km": 540.575135195096,
      "semi_major_axis_km": 6917.886251529007,
      "eccentricity": 0.00014832,
      "inclination_deg": 53.2179,
      "raan_deg": 46.1326,
      "arg_perigee_deg": 86.1046,
      "mean_anomaly_deg": 274.0116,
      "mean_motion_rev_day": 15.08838082
    },
    {
      "epoch": "2026-04-19T04:23:47.149440Z",
      "apogee_km": 540.7827469426511,
      "perigee_km": 538.7044772491654,
      "latitude_deg": -4.0692742104376196e-05,
      "longitude_deg": 128.73132654282458,
      "height_km": 540.5429169548311,
      "semi_major_axis_km": 6917.880612095908,
      "eccentricity": 0.00015021,
      "inclination_deg": 53.2183,
      "raan_deg": 41.9693,
      "arg_perigee_deg": 84.6817,
      "mean_anomaly_deg": 275.4346,
      "mean_motion_rev_day": 15.08839927
    },
    {
      "epoch": "2026-04-20T12:11:30.799104Z",
      "apogee_km": 540.8318324917454,
      "perigee_km": 538.7424810379198,
      "latitude_deg": 7.633884019094026e-05,
      "longitude_deg": 4.547244734929157,
      "height_km": 540.7241101874234,
      "semi_major_axis_km": 6917.924156764832,
      "eccentricity": 0.00015101,
      "inclination_deg": 53.218,
      "raan_deg": 36.0228,
      "arg_perigee_deg": 92.2717,
      "mean_anomaly_deg": 267.8449,
      "mean_motion_rev_day": 15.08825681
    },
    {
      "epoch": "2026-04-21T16:48:26.874720Z",
      "apogee_km": 540.6719663268213,
      "perigee_km": 538.8774600284232,
      "latitude_deg": 2.5807848344022152e-05,
      "longitude_deg": -71.21704412855381,
      "height_km": 540.7058944683337,
      "semi_major_axis_km": 6917.911713177622,
      "eccentricity": 0.0001297,
      "inclination_deg": 53.2199,
      "raan_deg": 30.6674,
      "arg_perigee_deg": 92.2438,
      "mean_anomaly_deg": 267.8703,
      "mean_motion_rev_day": 15.08829752
    },
    {
      "epoch": "2026-04-22T11:53:04.656192Z",
      "apogee_km": 540.8544269755002,
      "perigee_km": 538.6799913244795,
      "latitude_deg": -6.0906171341576956e-05,
      "longitude_deg": -1.7244045715324494,
      "height_km": 540.5856228390209,
      "semi_major_axis_km": 6917.90420914999,
      "eccentricity": 0.00015716,
      "inclination_deg": 53.2181,
      "raan_deg": 27.101,
      "arg_perigee_deg": 85.9343,
      "mean_anomaly_deg": 274.1828,
      "mean_motion_rev_day": 15.08832207
    },
    {
      "epoch": "2026-04-23T03:46:55.618752Z",
      "apogee_km": 540.8496437010626,
      "perigee_km": 538.5847382389384,
      "latitude_deg": 3.492855197464376e-05,
      "longitude_deg": 116.18693447712634,
      "height_km": 540.407415222472,
      "semi_major_axis_km": 6917.85419097,
      "eccentricity": 0.0001637,
      "inclination_deg": 53.2176,
      "raan_deg": 24.1275,
      "arg_perigee_deg": 79.5627,
      "mean_anomaly_deg": 280.555,
      "mean_motion_rev_day": 15.08848571
    },
    {
      "epoch": "2026-04-24T21:06:57.621312Z",
      "apogee_km": 540.9357056592544,
      "perigee_km": 538.582237449732,
      "latitude_deg": 3.4571196188429914e-05,
      "longitude_deg": -153.25013460638925,
      "height_km": 540.5109231097088,
      "semi_major_axis_km": 6917.8959715544925,
      "eccentricity": 0.0001701,
      "inclination_deg": 53.2183,
      "raan_deg": 16.3963,
      "arg_perigee_deg": 83.0012,
      "mean_anomaly_deg": 277.1174,
      "mean_motion_rev_day": 15.08834902
    },
    {
      "epoch": "2026-04-25T17:46:58.569024Z",
      "apogee_km": 541.0341886907772,
      "perigee_km": 538.4773355259022,
      "latitude_deg": 2.393644726855918e-05,
      "longitude_deg": -107.9660521175607,
      "height_km": 540.7112178126713,
      "semi_major_axis_km": 6917.892762108339,
      "eccentricity": 0.0001848,
      "inclination_deg": 53.2195,
      "raan_deg": 12.5331,
      "arg_perigee_deg": 92.7,
      "mean_anomaly_deg": 267.4204,
      "mean_motion_rev_day": 15.08835952
    },
    {
      "epoch": "2026-04-26T22:23:56.065920Z",
      "apogee_km": 541.098168121448,
      "perigee_km": 538.4242621033427,
      "latitude_deg": -1.3986992655506345e-05,
      "longitude_deg": 176.26633360681268,
      "height_km": 541.2807275489931,
      "semi_major_axis_km": 6917.898215112395,
      "eccentricity": 0.00019326,
      "inclination_deg": 53.2196,
      "raan_deg": 7.1803,
      "arg_perigee_deg": 117.8261,
      "mean_anomaly_deg": 242.2927,
      "mean_motion_rev_day": 15.08834168
    },
    {
      "epoch": "2026-04-27T09:31:38.164800Z",
      "apogee_km": 540.8896144292912,
      "perigee_km": 538.606712325377,
      "latitude_deg": 2.917373716656363e-05,
      "longitude_deg": 6.80212852035119,
      "height_km": 540.7358556092977,
      "semi_major_axis_km": 6917.885163377334,
      "eccentricity": 0.000165,
      "inclination_deg": 53.2193,
      "raan_deg": 5.0985,
      "arg_perigee_deg": 94.6326,
      "mean_anomaly_deg": 265.4855,
      "mean_motion_rev_day": 15.08838438
    },
    {
      "epoch": "2026-04-28T20:30:07.015104Z",
      "apogee_km": 540.8092787513133,
      "perigee_km": 538.7242225608661,
      "latitude_deg": -5.5827157587857984e-05,
      "longitude_deg": -165.7997022695229,
      "height_km": 540.7072881931349,
      "semi_major_axis_km": 6917.903750656089,
      "eccentricity": 0.0001507,
      "inclination_deg": 53.2192,
      "raan_deg": 358.5533,
      "arg_perigee_deg": 92.465,
      "mean_anomaly_deg": 267.6514,
      "mean_motion_rev_day": 15.08832357
    },
    {
      "epoch": "2026-04-29T20:20:53.940192Z",
      "apogee_km": 540.7358961703321,
      "perigee_km": 538.7186469487451,
      "latitude_deg": -1.971005316564502e-05,
      "longitude_deg": -168.9354318349884,
      "height_km": 540.7355077359919,
      "semi_major_axis_km": 6917.864271559538,
      "eccentricity": 0.0001458,
      "inclination_deg": 53.2209,
      "raan_deg": 354.0924,
      "arg_perigee_deg": 96.3913,
      "mean_anomaly_deg": 263.7245,
      "mean_motion_rev_day": 15.08845273
    },
    {
      "epoch": "2026-04-30T15:25:31.067616Z",
      "apogee_km": 540.8343037423019,
      "perigee_km": 538.6544793158318,
      "latitude_deg": 2.902363757563192e-05,
      "longitude_deg": -99.44195718936047,
      "height_km": 540.9638739790639,
      "semi_major_axis_km": 6917.881391529067,
      "eccentricity": 0.00015755,
      "inclination_deg": 53.2199,
      "raan_deg": 350.524,
      "arg_perigee_deg": 107.2785,
      "mean_anomaly_deg": 252.838,
      "mean_motion_rev_day": 15.08839672
    },
    {
      "epoch": "2026-05-02T00:48:36.774144Z",
      "apogee_km": 540.7393204399987,
      "perigee_km": 538.7497377122354,
      "latitude_deg": -3.778119184911341e-05,
      "longitude_deg": 112.1706444743805,
      "height_km": 540.7161669135255,
      "semi_major_axis_km": 6917.881529076117,
      "eccentricity": 0.0001438,
      "inclination_deg": 53.2186,
      "raan_deg": 344.2815,
      "arg_perigee_deg": 94.3759,
      "mean_anomaly_deg": 265.7397,
      "mean_motion_rev_day": 15.08839627
    }
  ]
}